start=new Date('2023-04-07T00:00:00.000Z').valueOf();
sats=[{"PERIOD":"95.590","DECAY_DATE":null,"REF_FRAME":"TEME","MEAN_ELEMENT_THEORY":"SGP4","MEAN_ANOMALY":"273.7051","CENTER_NAME":"EARTH","MEAN_MOTION":"15.06432051","FILE":"3882049","TLE_LINE1":"1 45754U 20038AA  23096.92614088  .00017413  00000-0  11840-2 0  9998","EPOCH":"2023-04-06T22:13:38.572032","LAUNCH_DATE":"2020-06-13","TLE_LINE2":"2 45754  53.0559 329.9926 0001878  86.4152 273.7051 15.06432051155546","ECCENTRICITY":"0.00018780","EPHEMERIS_TYPE":"0","MEAN_MOTION_DDOT":"0.0000000000000","RCS_SIZE":"LARGE","PERIAPSIS":"545.815","GP_ID":"229640543","ELEMENT_SET_NO":"999","OBJECT_TYPE":"PAYLOAD","TIME_SYSTEM":"UTC","OBJECT_ID":"2020-038AA","REV_AT_EPOCH":"15554","OBJECT_NAME":"STARLINK-1477","SITE":"AFETR","COUNTRY_CODE":"US","RA_OF_ASC_NODE":"329.9926","MEAN_MOTION_DOT":"0.00017413","SEMIMAJOR_AXIS":"6925.250","APOAPSIS":"548.416","INCLINATION":"53.0559","ARG_OF_PERICENTER":"86.4152","BSTAR":"0.00118400000000","NORAD_CAT_ID":"45754","CLASSIFICATION_TYPE":"U"},{"RCS_SIZE":"LARGE","ECCENTRICITY":"0.00021060","TLE_LINE2":"2 45755  53.0541 329.9162 0002106 288.7316  71.3445 15.06358855155531","EPHEMERIS_TYPE":"0","MEAN_MOTION_DDOT":"0.0000000000000","LAUNCH_DATE":"2020-06-13","EPOCH":"2023-04-06T22:40:09.186528","TLE_LINE1":"1 45755U 20038AB  23096.94455077  .00015344  00000-0  10479-2 0  9990","MEAN_MOTION":"15.06358855","FILE":"3882049","REF_FRAME":"TEME","MEAN_ANOMALY":"71.3445","CENTER_NAME":"EARTH","MEAN_ELEMENT_THEORY":"SGP4","PERIOD":"95.595","DECAY_DATE":null,"BSTAR":"0.00104790000000","NORAD_CAT_ID":"45755","CLASSIFICATION_TYPE":"U","ARG_OF_PERICENTER":"288.7316","MEAN_MOTION_DOT":"0.00015344","SEMIMAJOR_AXIS":"6925.475","APOAPSIS":"548.798","INCLINATION":"53.0541","OBJECT_NAME":"STARLINK-1478","SITE":"AFETR","RA_OF_ASC_NODE":"329.9162","COUNTRY_CODE":"US","REV_AT_EPOCH":"15553","OBJECT_ID":"2020-038AB","TIME_SYSTEM":"UTC","GP_ID":"229640771","ELEMENT_SET_NO":"999","OBJECT_TYPE":"PAYLOAD","PERIAPSIS":"545.881"},{"TLE_LINE1":"1 45756U 20038AC  23096.93993144  .00010603  00000-0  72949-3 0  9996","FILE":"3882049","MEAN_MOTION":"15.06405623","MEAN_ANOMALY":"258.2960","CENTER_NAME":"EARTH","MEAN_ELEMENT_THEORY":"SGP4","REF_FRAME":"TEME","DECAY_DATE":null,"PERIOD":"95.592","RCS_SIZE":"LARGE","EPHEMERIS_TYPE":"0","MEAN_MOTION_DDOT":"0.0000000000000","ECCENTRICITY":"0.00007190","TLE_LINE2":"2 45756  53.0538 329.9217 0000719 101.8110 258.2960 15.06405623155538","LAUNCH_DATE":"2020-06-13","EPOCH":"2023-04-06T22:33:30.076416","REV_AT_EPOCH":"15553","OBJECT_ID":"2020-038AC","TIME_SYSTEM":"UTC","OBJECT_TYPE":"PAYLOAD","ELEMENT_SET_NO":"999","GP_ID":"229640032","PERIAPSIS":"546.698","NORAD_CAT_ID":"45756","CLASSIFICATION_TYPE":"U","BSTAR":"0.00072949000000","ARG_OF_PERICENTER":"101.8110","INCLINATION":"53.0538","APOAPSIS":"547.694","SEMIMAJOR_AXIS":"6925.331","MEAN_MOTION_DOT":"0.00010603","COUNTRY_CODE":"US","RA_OF_ASC_NODE":"329.9217","OBJECT_NAME":"STARLINK-1484","SITE":"AFETR"},{"OBJECT_TYPE":"PAYLOAD","ELEMENT_SET_NO":"999","GP_ID":"229640282","PERIAPSIS":"526.966","REV_AT_EPOCH":"15555","OBJECT_ID":"2020-038AD","TIME_SYSTEM":"UTC","INCLINATION":"53.0545","APOAPSIS":"529.001","SEMIMAJOR_AXIS":"6906.119","MEAN_MOTION_DOT":"0.00033193","COUNTRY_CODE":"US","RA_OF_ASC_NODE":"328.2230","OBJECT_NAME":"STARLINK-1486","SITE":"AFETR","NORAD_CAT_ID":"45757","CLASSIFICATION_TYPE":"U","BSTAR":"0.00188260000000","ARG_OF_PERICENTER":"182.9919","CENTER_NAME":"EARTH","MEAN_ANOMALY":"177.1064","MEAN_ELEMENT_THEORY":"SGP4","REF_FRAME":"TEME","DECAY_DATE":null,"PERIOD":"95.194","TLE_LINE1":"1 45757U 20038AD  23096.91877775  .00033193  00000-0  18826-2 0  9998","FILE":"3882049","MEAN_MOTION":"15.12696139","LAUNCH_DATE":"2020-06-13","EPOCH":"2023-04-06T22:03:02.397600","RCS_SIZE":"LARGE","EPHEMERIS_TYPE":"0","MEAN_MOTION_DDOT":"0.0000000000000","TLE_LINE2":"2 45757  53.0545 328.2230 0001473 182.9919 177.1064 15.12696139155556","ECCENTRICITY":"0.00014730"},{"SITE":"AFETR","OBJECT_NAME":"STARLINK-1487","COUNTRY_CODE":"US","RA_OF_ASC_NODE":"327.7533","MEAN_MOTION_DOT":"0.00031990","SEMIMAJOR_AXIS":"6904.105","APOAPSIS":"526.433","INCLINATION":"53.0566","ARG_OF_PERICENTER":"153.0436","BSTAR":"0.00178210000000","CLASSIFICATION_TYPE":"U","NORAD_CAT_ID":"45758","PERIAPSIS":"525.506","GP_ID":"229641032","ELEMENT_SET_NO":"999","OBJECT_TYPE":"PAYLOAD","TIME_SYSTEM":"UTC","OBJECT_ID":"2020-038AE","REV_AT_EPOCH":"15556","EPOCH":"2023-04-06T22:36:58.444704","LAUNCH_DATE":"2020-06-13","TLE_LINE2":"2 45758  53.0566 327.7533 0000671 153.0436 207.0591 15.13358154155564","ECCENTRICITY":"0.00006710","MEAN_MOTION_DDOT":"0.0000000000000","EPHEMERIS_TYPE":"0","RCS_SIZE":"LARGE","PERIOD":"95.153","DECAY_DATE":null,"REF_FRAME":"TEME","MEAN_ANOMALY":"207.0591","MEAN_ELEMENT_THEORY":"SGP4","CENTER_NAME":"EARTH","MEAN_MOTION":"15.13358154","FILE":"3882049","TLE_LINE1":"1 45758U 20038AE  23096.94234311  .00031990  00000-0  17821-2 0  9992"},{"CENTER_NAME":"EARTH","MEAN_ANOMALY":"242.0198","MEAN_ELEMENT_THEORY":"SGP4","REF_FRAME":"TEME","PERIOD":"95.592","DECAY_DATE":null,"TLE_LINE1":"1 45759U 20038AF  23096.93347606  .00023307  00000-0  15783-2 0  9992","FILE":"3882049","MEAN_MOTION":"15.06402496","LAUNCH_DATE":"2020-06-13","EPOCH":"2023-04-06T22:24:12.331584","RCS_SIZE":"LARGE","EPHEMERIS_TYPE":"0","MEAN_MOTION_DDOT":"0.0000000000000","TLE_LINE2":"2 45759  53.0547 329.9623 0001166 118.0909 242.0198 15.06402496155534","ECCENTRICITY":"0.00011660","OBJECT_TYPE":"PAYLOAD","GP_ID":"229641260","ELEMENT_SET_NO":"999","PERIAPSIS":"546.398","REV_AT_EPOCH":"15553","OBJECT_ID":"2020-038AF","TIME_SYSTEM":"UTC","APOAPSIS":"548.013","INCLINATION":"53.0547","MEAN_MOTION_DOT":"0.00023307","SEMIMAJOR_AXIS":"6925.341","COUNTRY_CODE":"US","RA_OF_ASC_NODE":"329.9623","OBJECT_NAME":"STARLINK-1493","SITE":"AFETR","NORAD_CAT_ID":"45759","CLASSIFICATION_TYPE":"U","BSTAR":"0.00157830000000","ARG_OF_PERICENTER":"118.0909"},{"ARG_OF_PERICENTER":"84.9777","BSTAR":"0.00093125000000","CLASSIFICATION_TYPE":"U","NORAD_CAT_ID":"45760","SITE":"AFETR","OBJECT_NAME":"STARLINK-1494","RA_OF_ASC_NODE":"329.9482","COUNTRY_CODE":"US","SEMIMAJOR_AXIS":"6925.401","MEAN_MOTION_DOT":"0.00013610","INCLINATION":"53.0541","APOAPSIS":"547.894","TIME_SYSTEM":"UTC","OBJECT_ID":"2020-038AG","REV_AT_EPOCH":"15554","PERIAPSIS":"546.639","ELEMENT_SET_NO":"999","GP_ID":"229639545","OBJECT_TYPE":"PAYLOAD","TLE_LINE2":"2 45760  53.0541 329.9482 0000906  84.9777 275.1315 15.06382799155540","ECCENTRICITY":"0.00009060","EPHEMERIS_TYPE":"0","MEAN_MOTION_DDOT":"0.0000000000000","RCS_SIZE":"LARGE","EPOCH":"2023-04-06T22:29:33.254880","LAUNCH_DATE":"2020-06-13","MEAN_MOTION":"15.06382799","FILE":"3882049","TLE_LINE1":"1 45760U 20038AG  23096.93719045  .00013610  00000-0  93125-3 0  9997","DECAY_DATE":null,"PERIOD":"95.593","REF_FRAME":"TEME","MEAN_ANOMALY":"275.1315","MEAN_ELEMENT_THEORY":"SGP4","CENTER_NAME":"EARTH"},{"EPHEMERIS_TYPE":"0","MEAN_MOTION_DDOT":"0.0000000000000","ECCENTRICITY":"0.00039630","TLE_LINE2":"2 45762  53.0555 317.4789 0003963 122.3956 237.7423 15.19910232156640","RCS_SIZE":"LARGE","EPOCH":"2023-04-06T21:24:07.193952","LAUNCH_DATE":"2020-06-13","FILE":"3881860","MEAN_MOTION":"15.19910232","TLE_LINE1":"1 45762U 20038AJ  23096.89174993  .00009630  00000-0  45688-3 0  9999","DECAY_DATE":null,"PERIOD":"94.742","MEAN_ANOMALY":"237.7423","CENTER_NAME":"EARTH","MEAN_ELEMENT_THEORY":"SGP4","REF_FRAME":"TEME","ARG_OF_PERICENTER":"122.3956","NORAD_CAT_ID":"45762","CLASSIFICATION_TYPE":"U","BSTAR":"0.00045688000000","RA_OF_ASC_NODE":"317.4789","COUNTRY_CODE":"US","OBJECT_NAME":"STARLINK-1499","SITE":"AFETR","INCLINATION":"53.0555","APOAPSIS":"508.842","SEMIMAJOR_AXIS":"6884.249","MEAN_MOTION_DOT":"0.00009630","OBJECT_ID":"2020-038AJ","TIME_SYSTEM":"UTC","REV_AT_EPOCH":"15664","PERIAPSIS":"503.385","OBJECT_TYPE":"PAYLOAD","ELEMENT_SET_NO":"999","GP_ID":"229616652"},{"NORAD_CAT_ID":"45764","CLASSIFICATION_TYPE":"U","BSTAR":"0.00048321000000","ARG_OF_PERICENTER":"110.3490","INCLINATION":"53.0530","APOAPSIS":"547.944","SEMIMAJOR_AXIS":"6925.388","MEAN_MOTION_DOT":"0.00006921","COUNTRY_CODE":"US","RA_OF_ASC_NODE":"330.1095","SITE":"AFETR","OBJECT_NAME":"STARLINK-1502","REV_AT_EPOCH":"15646","TIME_SYSTEM":"UTC","OBJECT_ID":"2020-038AL","OBJECT_TYPE":"PAYLOAD","ELEMENT_SET_NO":"999","GP_ID":"229616994","PERIAPSIS":"546.561","RCS_SIZE":"LARGE","MEAN_MOTION_DDOT":"0.0000000000000","EPHEMERIS_TYPE":"0","TLE_LINE2":"2 45764  53.0530 330.1095 0000998 110.3490 249.7606 15.06387263156466","ECCENTRICITY":"0.00009980","LAUNCH_DATE":"2020-06-13","EPOCH":"2023-04-06T21:36:30.051648","TLE_LINE1":"1 45764U 20038AL  23096.90034782  .00006921  00000-0  48321-3 0  9991","FILE":"3881860","MEAN_MOTION":"15.06387263","MEAN_ELEMENT_THEORY":"SGP4","MEAN_ANOMALY":"249.7606","CENTER_NAME":"EARTH","REF_FRAME":"TEME","DECAY_DATE":null,"PERIOD":"95.593"},{"LAUNCH_DATE":"2020-06-13","EPOCH":"2023-04-06T22:00:00.999936","RCS_SIZE":"LARGE","ECCENTRICITY":"0.00013670","TLE_LINE2":"2 45766  53.0537 329.3591 0001367  93.7932  47.1782 15.19862544  1303","MEAN_MOTION_DDOT":"0.0000000000000","EPHEMERIS_TYPE":"0","REF_FRAME":"TEME","MEAN_ELEMENT_THEORY":"SGP4","MEAN_ANOMALY":"47.1782","CENTER_NAME":"EARTH","PERIOD":"94.745","DECAY_DATE":null,"TLE_LINE1":"1 45766U 20038AN  23096.91667824  .00618949  00000-0  26504-1 0  9999","MEAN_MOTION":"15.19862544","FILE":"3882049","MEAN_MOTION_DOT":"0.00618949","SEMIMAJOR_AXIS":"6884.393","APOAPSIS":"507.199","INCLINATION":"53.0537","OBJECT_NAME":"STARLINK-1509","SITE":"AFETR","COUNTRY_CODE":"US","RA_OF_ASC_NODE":"329.3591","BSTAR":"0.02650400000000","CLASSIFICATION_TYPE":"U","NORAD_CAT_ID":"45766","ARG_OF_PERICENTER":"93.7932","GP_ID":"229640772","ELEMENT_SET_NO":"999","OBJECT_TYPE":"PAYLOAD","PERIAPSIS":"505.317","REV_AT_EPOCH":"130","OBJECT_ID":"2020-038AN","TIME_SYSTEM":"UTC"}];
